start=new Date('2022-05-15T00:00:00.000Z').valueOf();
sats=[{"LAUNCH_DATE":"2022-03-03","REV_AT_EPOCH":"130","EPOCH":"2022-05-14T22:00:00.999936","MEAN_MOTION":"15.57311585","TLE_LINE1":"1 51877U 22022AB  22134.91667824 -.00713645  00000-0 -10479-1 0  9991","TLE_LINE2":"2 51877  53.2173 146.7926 0001603  43.3131 167.8218 15.57311585  1309","MEAN_ELEMENT_THEORY":"SGP4","TIME_SYSTEM":"UTC","NORAD_CAT_ID":"51877","EPHEMERIS_TYPE":"0","REF_FRAME":"TEME","INCLINATION":"53.2173","FILE":"3445938","DECAY_DATE":null,"OBJECT_TYPE":"PAYLOAD","MEAN_MOTION_DOT":"-0.00713645","PERIOD":"92.467","ECCENTRICITY":"0.00016030","SEMIMAJOR_AXIS":"6773.578","OBJECT_NAME":"STARLINK-3556","RA_OF_ASC_NODE":"146.7926","OBJECT_ID":"2022-022AB","MEAN_ANOMALY":"167.8218","GP_ID":"203566392","CLASSIFICATION_TYPE":"U","SITE":"AFETR","BSTAR":"-0.01047900000000","CENTER_NAME":"EARTH","APOAPSIS":"396.529","ELEMENT_SET_NO":"999","MEAN_MOTION_DDOT":"0.0000000000000","COUNTRY_CODE":"US","PERIAPSIS":"394.358","RCS_SIZE":"LARGE","ARG_OF_PERICENTER":"43.3131"},{"EPHEMERIS_TYPE":"0","NORAD_CAT_ID":"51878","REF_FRAME":"TEME","FILE":"3445938","INCLINATION":"53.2173","DECAY_DATE":null,"MEAN_MOTION_DOT":"-0.00714397","OBJECT_TYPE":"PAYLOAD","PERIOD":"93.905","LAUNCH_DATE":"2022-03-03","REV_AT_EPOCH":"130","EPOCH":"2022-05-14T22:00:00.999936","MEAN_MOTION":"15.33457697","TLE_LINE1":"1 51878U 22022AC  22134.91667824 -.00714397  00000-0 -23587-1 0  9991","MEAN_ELEMENT_THEORY":"SGP4","TLE_LINE2":"2 51878  53.2173 151.7819 0001584  36.9720 338.3910 15.33457697  1300","TIME_SYSTEM":"UTC","CLASSIFICATION_TYPE":"U","SITE":"AFETR","BSTAR":"-0.02358700000000","CENTER_NAME":"EARTH","APOAPSIS":"466.591","ELEMENT_SET_NO":"999","COUNTRY_CODE":"US","MEAN_MOTION_DDOT":"0.0000000000000","PERIAPSIS":"464.423","RCS_SIZE":"LARGE","ARG_OF_PERICENTER":"36.9720","ECCENTRICITY":"0.00015840","SEMIMAJOR_AXIS":"6843.642","OBJECT_NAME":"STARLINK-3575","RA_OF_ASC_NODE":"151.7819","OBJECT_ID":"2022-022AC","MEAN_ANOMALY":"338.3910","GP_ID":"203566574"},{"EPOCH":"2022-05-14T22:00:00.999936","MEAN_MOTION":"15.57320221","LAUNCH_DATE":"2022-03-03","REV_AT_EPOCH":"130","MEAN_ELEMENT_THEORY":"SGP4","TLE_LINE2":"2 51879  53.2173 146.8095 0001474  50.9760 161.7512 15.57320221  1304","TIME_SYSTEM":"UTC","TLE_LINE1":"1 51879U 22022AD  22134.91667824 -.00713521  00000-0 -10474-1 0  9991","REF_FRAME":"TEME","NORAD_CAT_ID":"51879","EPHEMERIS_TYPE":"0","DECAY_DATE":null,"OBJECT_TYPE":"PAYLOAD","PERIOD":"92.467","MEAN_MOTION_DOT":"-0.00713521","FILE":"3445938","INCLINATION":"53.2173","RA_OF_ASC_NODE":"146.8095","ECCENTRICITY":"0.00014740","SEMIMAJOR_AXIS":"6773.553","OBJECT_NAME":"STARLINK-3572","MEAN_ANOMALY":"161.7512","GP_ID":"203566141","OBJECT_ID":"2022-022AD","CENTER_NAME":"EARTH","APOAPSIS":"396.417","ELEMENT_SET_NO":"999","COUNTRY_CODE":"US","MEAN_MOTION_DDOT":"0.0000000000000","CLASSIFICATION_TYPE":"U","SITE":"AFETR","BSTAR":"-0.01047400000000","ARG_OF_PERICENTER":"50.9760","PERIAPSIS":"394.420","RCS_SIZE":"LARGE"},{"REV_AT_EPOCH":"130","LAUNCH_DATE":"2022-03-03","EPOCH":"2022-05-14T22:00:00.999936","MEAN_MOTION":"15.32359252","TLE_LINE1":"1 51880U 22022AE  22134.91667824 -.00714911  00000-0 -24441-1 0  9996","MEAN_ELEMENT_THEORY":"SGP4","TLE_LINE2":"2 51880  53.2173 151.7817 0001625  45.0012 227.4131 15.32359252  1302","TIME_SYSTEM":"UTC","NORAD_CAT_ID":"51880","EPHEMERIS_TYPE":"0","REF_FRAME":"TEME","FILE":"3445938","INCLINATION":"53.2173","DECAY_DATE":null,"MEAN_MOTION_DOT":"-0.00714911","OBJECT_TYPE":"PAYLOAD","PERIOD":"93.973","SEMIMAJOR_AXIS":"6846.913","ECCENTRICITY":"0.00016250","OBJECT_NAME":"STARLINK-3566","RA_OF_ASC_NODE":"151.7817","OBJECT_ID":"2022-022AE","MEAN_ANOMALY":"227.4131","GP_ID":"203566362","SITE":"AFETR","CLASSIFICATION_TYPE":"U","BSTAR":"-0.02444100000000","APOAPSIS":"469.890","CENTER_NAME":"EARTH","COUNTRY_CODE":"US","MEAN_MOTION_DDOT":"0.0000000000000","ELEMENT_SET_NO":"999","RCS_SIZE":"LARGE","PERIAPSIS":"467.665","ARG_OF_PERICENTER":"45.0012"},{"TIME_SYSTEM":"UTC","TLE_LINE2":"2 51881  53.2173 146.8264 0001488  49.4468 164.8724 15.57328996  1304","MEAN_ELEMENT_THEORY":"SGP4","TLE_LINE1":"1 51881U 22022AF  22134.91667824 -.00713553  00000-0 -10471-1 0  9996","MEAN_MOTION":"15.57328996","EPOCH":"2022-05-14T22:00:00.999936","REV_AT_EPOCH":"130","LAUNCH_DATE":"2022-03-03","PERIOD":"92.466","OBJECT_TYPE":"PAYLOAD","MEAN_MOTION_DOT":"-0.00713553","DECAY_DATE":null,"FILE":"3445938","INCLINATION":"53.2173","REF_FRAME":"TEME","EPHEMERIS_TYPE":"0","NORAD_CAT_ID":"51881","GP_ID":"203566048","MEAN_ANOMALY":"164.8724","OBJECT_ID":"2022-022AF","RA_OF_ASC_NODE":"146.8264","OBJECT_NAME":"STARLINK-3504","SEMIMAJOR_AXIS":"6773.528","ECCENTRICITY":"0.00014880","ARG_OF_PERICENTER":"49.4468","RCS_SIZE":"LARGE","PERIAPSIS":"394.385","MEAN_MOTION_DDOT":"0.0000000000000","COUNTRY_CODE":"US","ELEMENT_SET_NO":"999","APOAPSIS":"396.401","CENTER_NAME":"EARTH","BSTAR":"-0.01047100000000","SITE":"AFETR","CLASSIFICATION_TYPE":"U"},{"REV_AT_EPOCH":"130","LAUNCH_DATE":"2022-03-03","EPOCH":"2022-05-14T22:00:00.999936","MEAN_MOTION":"15.57315881","TLE_LINE1":"1 51882U 22022AG  22134.91667824 -.00713531  00000-0 -10476-1 0  9998","TLE_LINE2":"2 51882  53.2172 146.8010 0001432  53.4472 158.4838 15.57315881  1306","MEAN_ELEMENT_THEORY":"SGP4","TIME_SYSTEM":"UTC","NORAD_CAT_ID":"51882","EPHEMERIS_TYPE":"0","REF_FRAME":"TEME","INCLINATION":"53.2172","FILE":"3445938","DECAY_DATE":null,"PERIOD":"92.467","OBJECT_TYPE":"PAYLOAD","MEAN_MOTION_DOT":"-0.00713531","SEMIMAJOR_AXIS":"6773.566","ECCENTRICITY":"0.00014320","OBJECT_NAME":"STARLINK-3570","RA_OF_ASC_NODE":"146.8010","OBJECT_ID":"2022-022AG","MEAN_ANOMALY":"158.4838","GP_ID":"203566229","SITE":"AFETR","CLASSIFICATION_TYPE":"U","BSTAR":"-0.01047600000000","APOAPSIS":"396.401","CENTER_NAME":"EARTH","COUNTRY_CODE":"US","MEAN_MOTION_DDOT":"0.0000000000000","ELEMENT_SET_NO":"999","RCS_SIZE":"LARGE","PERIAPSIS":"394.461","ARG_OF_PERICENTER":"53.4472"},{"BSTAR":"-0.01046700000000","CLASSIFICATION_TYPE":"U","SITE":"AFETR","ELEMENT_SET_NO":"999","MEAN_MOTION_DDOT":"0.0000000000000","COUNTRY_CODE":"US","CENTER_NAME":"EARTH","APOAPSIS":"396.330","PERIAPSIS":"394.405","RCS_SIZE":"LARGE","ARG_OF_PERICENTER":"53.4578","OBJECT_NAME":"STARLINK-3576","ECCENTRICITY":"0.00014210","SEMIMAJOR_AXIS":"6773.503","RA_OF_ASC_NODE":"146.8407","OBJECT_ID":"2022-022AH","GP_ID":"203566486","MEAN_ANOMALY":"162.4533","EPHEMERIS_TYPE":"0","NORAD_CAT_ID":"51883","REF_FRAME":"TEME","INCLINATION":"53.2173","FILE":"3445938","PERIOD":"92.465","OBJECT_TYPE":"PAYLOAD","MEAN_MOTION_DOT":"-0.00713504","DECAY_DATE":null,"LAUNCH_DATE":"2022-03-03","REV_AT_EPOCH":"130","MEAN_MOTION":"15.57337655","EPOCH":"2022-05-14T22:00:00.999936","TLE_LINE1":"1 51883U 22022AH  22134.91667824 -.00713504  00000-0 -10467-1 0  9999","TIME_SYSTEM":"UTC","MEAN_ELEMENT_THEORY":"SGP4","TLE_LINE2":"2 51883  53.2173 146.8407 0001421  53.4578 162.4533 15.57337655  1303"},{"OBJECT_TYPE":"PAYLOAD","PERIOD":"92.466","MEAN_MOTION_DOT":"-0.00713503","DECAY_DATE":null,"INCLINATION":"53.2173","FILE":"3445938","REF_FRAME":"TEME","NORAD_CAT_ID":"51884","EPHEMERIS_TYPE":"0","TIME_SYSTEM":"UTC","TLE_LINE2":"2 51884  53.2173 146.8178 0001468  51.2274 162.2958 15.57324594  1306","MEAN_ELEMENT_THEORY":"SGP4","TLE_LINE1":"1 51884U 22022AJ  22134.91667824 -.00713503  00000-0 -10472-1 0  9995","MEAN_MOTION":"15.57324594","EPOCH":"2022-05-14T22:00:00.999936","REV_AT_EPOCH":"130","LAUNCH_DATE":"2022-03-03","ARG_OF_PERICENTER":"51.2274","RCS_SIZE":"LARGE","PERIAPSIS":"394.411","COUNTRY_CODE":"US","MEAN_MOTION_DDOT":"0.0000000000000","ELEMENT_SET_NO":"999","APOAPSIS":"396.400","CENTER_NAME":"EARTH","BSTAR":"-0.01047200000000","SITE":"AFETR","CLASSIFICATION_TYPE":"U","GP_ID":"203566018","MEAN_ANOMALY":"162.2958","OBJECT_ID":"2022-022AJ","RA_OF_ASC_NODE":"146.8178","OBJECT_NAME":"STARLINK-3577","SEMIMAJOR_AXIS":"6773.541","ECCENTRICITY":"0.00014680"},{"OBJECT_ID":"2022-022AK","MEAN_ANOMALY":"165.8332","GP_ID":"203566393","ECCENTRICITY":"0.00014480","SEMIMAJOR_AXIS":"6773.478","OBJECT_NAME":"STARLINK-3584","RA_OF_ASC_NODE":"146.8501","PERIAPSIS":"394.362","RCS_SIZE":"LARGE","ARG_OF_PERICENTER":"51.6698","CLASSIFICATION_TYPE":"U","SITE":"AFETR","BSTAR":"-0.01046300000000","CENTER_NAME":"EARTH","APOAPSIS":"396.324","ELEMENT_SET_NO":"999","MEAN_MOTION_DDOT":"0.0000000000000","COUNTRY_CODE":"US","TLE_LINE1":"1 51885U 22022AK  22134.91667824 -.00713471  00000-0 -10463-1 0  9990","MEAN_ELEMENT_THEORY":"SGP4","TLE_LINE2":"2 51885  53.2173 146.8501 0001448  51.6698 165.8332 15.57346252  1309","TIME_SYSTEM":"UTC","LAUNCH_DATE":"2022-03-03","REV_AT_EPOCH":"130","EPOCH":"2022-05-14T22:00:00.999936","MEAN_MOTION":"15.57346252","FILE":"3445938","INCLINATION":"53.2173","DECAY_DATE":null,"OBJECT_TYPE":"PAYLOAD","PERIOD":"92.465","MEAN_MOTION_DOT":"-0.00713471","EPHEMERIS_TYPE":"0","NORAD_CAT_ID":"51885","REF_FRAME":"TEME"},{"REF_FRAME":"TEME","EPHEMERIS_TYPE":"0","NORAD_CAT_ID":"51886","OBJECT_TYPE":"PAYLOAD","MEAN_MOTION_DOT":"-0.00713405","PERIOD":"92.466","DECAY_DATE":null,"FILE":"3445938","INCLINATION":"53.2173","MEAN_MOTION":"15.57333280","EPOCH":"2022-05-14T22:00:00.999936","REV_AT_EPOCH":"130","LAUNCH_DATE":"2022-03-03","TIME_SYSTEM":"UTC","MEAN_ELEMENT_THEORY":"SGP4","TLE_LINE2":"2 51886  53.2173 146.8347 0001473  51.9945 163.1207 15.57333280  1303","TLE_LINE1":"1 51886U 22022AL  22134.91667824 -.00713405  00000-0 -10467-1 0  9992","COUNTRY_CODE":"US","MEAN_MOTION_DDOT":"0.0000000000000","ELEMENT_SET_NO":"999","APOAPSIS":"396.378","CENTER_NAME":"EARTH","BSTAR":"-0.01046700000000","SITE":"AFETR","CLASSIFICATION_TYPE":"U","ARG_OF_PERICENTER":"51.9945","RCS_SIZE":"LARGE","PERIAPSIS":"394.383","RA_OF_ASC_NODE":"146.8347","OBJECT_NAME":"STARLINK-3565","SEMIMAJOR_AXIS":"6773.516","ECCENTRICITY":"0.00014730","GP_ID":"203566575","MEAN_ANOMALY":"163.1207","OBJECT_ID":"2022-022AL"}];
